KUIPER-00152            
1 65772U 25217L   25321.80848529  .00040776  00000+0  10677-2 0  9997
2 65772  51.8715 184.6537 0002935 186.1208 173.9744 15.38306691  8213
KUIPER-00153            
1 65773U 25217M   25321.83337963 -.01010891  00000+0 -62848-1 0  9990
2 65773  51.8781 187.7508 0011674 291.5395  97.4305 15.12175869  3971
KUIPER-00155            
1 65774U 25217N   25321.73249487  .00020483  00000+0  57517-3 0  9997
2 65774  51.8642 185.6130 0005496 271.6506  88.3851 15.36503720  8195
KUIPER-00156            
1 65775U 25217P   25321.62125442  .00048747  00000+0  12772-2 0  9996
2 65775  51.8682 185.6484 0002698 198.0120 162.0772 15.38206118  8181
KUIPER-00158            
1 65776U 25217Q   25321.83337963 -.00653836  00000+0 -29874-1 0  9996
2 65776  51.8741 185.8364 0004374 241.8025 359.5242 15.22613219  3414
KUIPER-00163            
1 65777U 25217R   25321.83337963 -.00842268  00000+0 -45663-1 0  9990
2 65777  51.8688 186.6971 0009726 305.0879 169.7471 15.16523654  1941
KUIPER-00165            
1 65778U 25217S   25321.63951514  .00067941  00000+0  17959-2 0  9996
2 65778  51.8697 185.7663 0004090 250.7571 109.2973 15.37782780  8183
KUIPER-00166            
1 65779U 25217T   25321.63138747  .00021139  00000+0  56964-3 0  9991
2 65779  51.8699 185.7159 0003135 213.2198 146.8593 15.37771798  8186
